{"spkid": "50624779", "covariance": {"labels": ["e", "q", "tp", "node", "peri", "i"], "data": [["9.351124271150473E-13", "-7.064410363918449E-13", "-2.809544984242118E-11", "-5.034200619553041E-11", "4.016825119916866E-11", "5.547045785107614E-12"], ["-7.064410363918449E-13", "5.336892639437707E-13", "2.122277477961246E-11", "3.802167226386365E-11", "-3.033647653761287E-11", "-4.190558613809001E-12"], ["-2.809544984242118E-11", "2.122277477961246E-11", "9.585465261722976E-10", "1.934118846344118E-9", "-1.568376041099961E-9", "-1.753353264528747E-10"], ["-5.034200619553041E-11", "3.802167226386365E-11", "1.934118846344118E-9", "1.594659104459091E-8", "-1.518371999037982E-8", "-5.558235170814352E-10"], ["4.016825119916866E-11", "-3.033647653761287E-11", "-1.568376041099961E-9", "-1.518371999037982E-8", "1.456733919094195E-8", "4.906588483115684E-10"], ["5.547045785107614E-12", "-4.190558613809001E-12", "-1.753353264528747E-10", "-5.558235170814352E-10", "4.906588483115684E-10", "4.203658481800992E-11"]], "elements": [{"label": "e", "value": ".564745370943991", "title": "eccentricity", "units": null, "name": "e", "sigma": 9.67012113220433e-07}, {"title": "perihelion distance", "value": ".3365264426724815", "units": "au", "name": "q", "sigma": 7.30540391726406e-07, "label": "q"}, {"value": "2457140.776370391348", "title": "time of perihelion passage", "units": "TDB", "sigma": 3.09604025518451e-05, "name": "tp", "label": "tp"}, {"label": "node", "name": "om", "sigma": 0.000126279812498241, "units": "deg", "title": "longitude of the ascending node", "value": "161.9644854814831"}, {"label": "peri", "value": "117.1990494377459", "title": "argument of perihelion", "units": "deg", "sigma": 0.000120695232676945, "name": "w"}, {"units": "deg", "title": "inclination", "value": "1.840886178171526", "sigma": 6.48356266399963e-06, "name": "i", "label": "i"}], "epoch": "2457118.5"}, "elements": [{"label": "e", "title": "eccentricity", "value": ".5648174754256784", "units": null, "name": "e", "sigma": "9.6756E-7"}, {"units": "au", "title": "semi-major axis", "value": ".7730960990011098", "name": "a", "sigma": "3.1598E-8", "label": "a"}, {"label": "q", "sigma": "7.3428E-7", "name": "q", "units": "au", "title": "perihelion distance", "value": ".3364379121018626"}, {"label": "i", "sigma": "6.4311E-6", "name": "i", "units": "deg", "title": "inclination; angle with respect to x-y ecliptic plane", "value": "1.845224579144929"}, {"units": "deg", "value": "161.6939794476513", "title": "longitude of the ascending node", "name": "om", "sigma": ".00012535", "label": "node"}, {"label": "peri", "sigma": ".00012011", "name": "w", "title": "argument of perihelion", "value": "117.4304074469651", "units": "deg"}, {"units": "deg", "title": "mean anomaly", "value": "126.0934625149756", "sigma": ".00038639", "name": "ma", "label": "M"}, {"name": "tp", "sigma": ".00026116", "title": "time of perihelion passage", "value": "2461113.536157772582", "units": "TDB", "label": "tp"}, {"name": "per", "sigma": "1.5222E-5", "units": "d", "title": "sidereal orbital period", "value": "248.2839520578035", "label": "period"}, {"label": "n", "units": "deg/d", "value": "1.44995275375747", "title": "mean motion", "name": "n", "sigma": "8.8893E-8"}, {"label": "Q", "value": "1.209754285900357", "title": "aphelion distance", "units": "au", "name": "ad", "sigma": "4.9445E-8"}], "epoch": "2461200.5"}